[{"OBJECT_NAME":"LEMUR-2-KREMPEL-BRO1","OBJECT_ID":"2025-061G","EPOCH":"2026-03-28T20:01:41.006496","MEAN_MOTION":15.13945563,"ECCENTRICITY":0.0019391,"INCLINATION":97.5549,"RA_OF_ASC_NODE":64.2775,"ARG_OF_PERICENTER":161.0645,"MEAN_ANOMALY":199.1312,"EPHEMERIS_TYPE":0,"CLASSIFICATION_TYPE":"U","NORAD_CAT_ID":63357,"ELEMENT_SET_NO":999,"REV_AT_EPOCH":5547,"BSTAR":0.00026942,"MEAN_MOTION_DOT":4.839e-5,"MEAN_MOTION_DDOT":0},{"OBJECT_NAME":"LEMUR-2-LANGER2SPACE","OBJECT_ID":"2025-061H","EPOCH":"2026-03-28T20:16:45.801120","MEAN_MOTION":15.13642605,"ECCENTRICITY":0.0017131,"INCLINATION":97.5554,"RA_OF_ASC_NODE":64.1342,"ARG_OF_PERICENTER":168.9378,"MEAN_ANOMALY":191.2233,"EPHEMERIS_TYPE":0,"CLASSIFICATION_TYPE":"U","NORAD_CAT_ID":63358,"ELEMENT_SET_NO":999,"REV_AT_EPOCH":5546,"BSTAR":0.00026514,"MEAN_MOTION_DOT":4.715e-5,"MEAN_MOTION_DDOT":0},{"OBJECT_NAME":"LEMUR-2-BALTO","OBJECT_ID":"2025-052BH","EPOCH":"2026-03-28T15:38:39.928992","MEAN_MOTION":14.99201005,"ECCENTRICITY":6.22e-5,"INCLINATION":97.6977,"RA_OF_ASC_NODE":342.2377,"ARG_OF_PERICENTER":56.1749,"MEAN_ANOMALY":303.9534,"EPHEMERIS_TYPE":0,"CLASSIFICATION_TYPE":"U","NORAD_CAT_ID":63395,"ELEMENT_SET_NO":999,"REV_AT_EPOCH":5669,"BSTAR":0.00064358,"MEAN_MOTION_DOT":7.784e-5,"MEAN_MOTION_DDOT":0},{"OBJECT_NAME":"LEMUR-2-KRISH","OBJECT_ID":"2025-135AK","EPOCH":"2026-03-28T19:13:34.569120","MEAN_MOTION":14.95382952,"ECCENTRICITY":0.0001572,"INCLINATION":97.7634,"RA_OF_ASC_NODE":203.3308,"ARG_OF_PERICENTER":103.6565,"MEAN_ANOMALY":256.4831,"EPHEMERIS_TYPE":0,"CLASSIFICATION_TYPE":"U","NORAD_CAT_ID":64561,"ELEMENT_SET_NO":999,"REV_AT_EPOCH":4190,"BSTAR":0.00073841,"MEAN_MOTION_DOT":8.101e-5,"MEAN_MOTION_DDOT":0},{"OBJECT_NAME":"LEMUR-2-HUBBLE-4","OBJECT_ID":"2025-135AP","EPOCH":"2026-03-28T20:31:46.216992","MEAN_MOTION":14.9295283,"ECCENTRICITY":0.0002799,"INCLINATION":97.7588,"RA_OF_ASC_NODE":202.7867,"ARG_OF_PERICENTER":164.2429,"MEAN_ANOMALY":195.8877,"EPHEMERIS_TYPE":0,"CLASSIFICATION_TYPE":"U","NORAD_CAT_ID":64565,"ELEMENT_SET_NO":999,"REV_AT_EPOCH":4188,"BSTAR":0.00027215,"MEAN_MOTION_DOT":2.769e-5,"MEAN_MOTION_DDOT":0},{"OBJECT_NAME":"LEMUR-2-SEJONG-2","OBJECT_ID":"2025-135BL","EPOCH":"2026-03-28T20:37:22.698336","MEAN_MOTION":14.9594358,"ECCENTRICITY":0.0003819,"INCLINATION":97.7572,"RA_OF_ASC_NODE":203.5237,"ARG_OF_PERICENTER":216.9238,"MEAN_ANOMALY":143.172,"EPHEMERIS_TYPE":0,"CLASSIFICATION_TYPE":"U","NORAD_CAT_ID":64586,"ELEMENT_SET_NO":999,"REV_AT_EPOCH":4193,"BSTAR":0.00066869,"MEAN_MOTION_DOT":7.436e-5,"MEAN_MOTION_DDOT":0},{"OBJECT_NAME":"LEMUR-2-HUBBLE-5","OBJECT_ID":"2025-135BT","EPOCH":"2026-03-28T20:29:33.776160","MEAN_MOTION":14.9385982,"ECCENTRICITY":0.0004513,"INCLINATION":97.7605,"RA_OF_ASC_NODE":203.2987,"ARG_OF_PERICENTER":235.1346,"MEAN_ANOMALY":124.945,"EPHEMERIS_TYPE":0,"CLASSIFICATION_TYPE":"U","NORAD_CAT_ID":64840,"ELEMENT_SET_NO":999,"REV_AT_EPOCH":4191,"BSTAR":0.00024051,"MEAN_MOTION_DOT":2.498e-5,"MEAN_MOTION_DDOT":0},{"OBJECT_NAME":"LEMUR-2-KARENDARRELL","OBJECT_ID":"2025-135BU","EPOCH":"2026-03-28T20:14:01.032864","MEAN_MOTION":14.98837874,"ECCENTRICITY":0.0008193,"INCLINATION":97.7585,"RA_OF_ASC_NODE":204.2768,"ARG_OF_PERICENTER":134.9296,"MEAN_ANOMALY":225.2593,"EPHEMERIS_TYPE":0,"CLASSIFICATION_TYPE":"U","NORAD_CAT_ID":64841,"ELEMENT_SET_NO":999,"REV_AT_EPOCH":4197,"BSTAR":0.00098305,"MEAN_MOTION_DOT":0.00011823,"MEAN_MOTION_DDOT":0},{"OBJECT_NAME":"LEMUR-2-LUCILLE-ROSE","OBJECT_ID":"2025-135BV","EPOCH":"2026-03-28T19:38:34.985472","MEAN_MOTION":14.98898969,"ECCENTRICITY":0.0010265,"INCLINATION":97.7652,"RA_OF_ASC_NODE":204.2325,"ARG_OF_PERICENTER":175.4171,"MEAN_ANOMALY":184.7147,"EPHEMERIS_TYPE":0,"CLASSIFICATION_TYPE":"U","NORAD_CAT_ID":65403,"ELEMENT_SET_NO":999,"REV_AT_EPOCH":3659,"BSTAR":0.00091382,"MEAN_MOTION_DOT":0.00011006,"MEAN_MOTION_DDOT":0},{"OBJECT_NAME":"LEMUR-2-AFFIE-WAUWIE","OBJECT_ID":"2025-248C","EPOCH":"2026-03-28T07:54:48.363552","MEAN_MOTION":15.24320105,"ECCENTRICITY":0.00083165,"INCLINATION":45.4034,"RA_OF_ASC_NODE":192.1464,"ARG_OF_PERICENTER":328.8503,"MEAN_ANOMALY":31.1892,"EPHEMERIS_TYPE":0,"CLASSIFICATION_TYPE":"U","NORAD_CAT_ID":66295,"ELEMENT_SET_NO":999,"REV_AT_EPOCH":2224,"BSTAR":0.0010959982,"MEAN_MOTION_DOT":0.00027119,"MEAN_MOTION_DDOT":0},{"OBJECT_NAME":"LEMUR-2-DEANANDMAEVE","OBJECT_ID":"2025-276N","EPOCH":"2026-03-28T16:41:01.182912","MEAN_MOTION":15.18655174,"ECCENTRICITY":0.0004403,"INCLINATION":97.4258,"RA_OF_ASC_NODE":162.5539,"ARG_OF_PERICENTER":280.7005,"MEAN_ANOMALY":79.3733,"EPHEMERIS_TYPE":0,"CLASSIFICATION_TYPE":"U","NORAD_CAT_ID":66678,"ELEMENT_SET_NO":999,"REV_AT_EPOCH":1819,"BSTAR":0.00043409,"MEAN_MOTION_DOT":8.932e-5,"MEAN_MOTION_DDOT":0},{"OBJECT_NAME":"LEMUR-2-STAS-GORBUK","OBJECT_ID":"2025-276W","EPOCH":"2026-03-28T16:40:42.607776","MEAN_MOTION":15.1845516,"ECCENTRICITY":0.0003649,"INCLINATION":97.4294,"RA_OF_ASC_NODE":162.6058,"ARG_OF_PERICENTER":275.9614,"MEAN_ANOMALY":84.1204,"EPHEMERIS_TYPE":0,"CLASSIFICATION_TYPE":"U","NORAD_CAT_ID":66686,"ELEMENT_SET_NO":999,"REV_AT_EPOCH":1819,"BSTAR":0.00036266,"MEAN_MOTION_DOT":7.406e-5,"MEAN_MOTION_DDOT":0},{"OBJECT_NAME":"LEMUR-2-TEODOR","OBJECT_ID":"2025-276DG","EPOCH":"2026-03-28T18:24:22.401216","MEAN_MOTION":15.20124167,"ECCENTRICITY":0.0002256,"INCLINATION":97.4195,"RA_OF_ASC_NODE":162.8128,"ARG_OF_PERICENTER":92.9379,"MEAN_ANOMALY":267.2115,"EPHEMERIS_TYPE":0,"CLASSIFICATION_TYPE":"U","NORAD_CAT_ID":66768,"ELEMENT_SET_NO":999,"REV_AT_EPOCH":1822,"BSTAR":0.00034442,"MEAN_MOTION_DOT":7.379e-5,"MEAN_MOTION_DDOT":0},{"OBJECT_NAME":"LEMUR-2-LAILA","OBJECT_ID":"2025-276DQ","EPOCH":"2026-03-28T18:03:11.268000","MEAN_MOTION":15.20333803,"ECCENTRICITY":0.0002867,"INCLINATION":97.4222,"RA_OF_ASC_NODE":162.8683,"ARG_OF_PERICENTER":102.0247,"MEAN_ANOMALY":258.131,"EPHEMERIS_TYPE":0,"CLASSIFICATION_TYPE":"U","NORAD_CAT_ID":66776,"ELEMENT_SET_NO":999,"REV_AT_EPOCH":1822,"BSTAR":0.00036978,"MEAN_MOTION_DOT":7.977e-5,"MEAN_MOTION_DDOT":0},{"OBJECT_NAME":"LEMUR-2-FINNIAN","OBJECT_ID":"2025-276DX","EPOCH":"2026-03-28T18:11:12.477120","MEAN_MOTION":14.99398452,"ECCENTRICITY":0.0006817,"INCLINATION":97.5346,"RA_OF_ASC_NODE":161.373,"ARG_OF_PERICENTER":54.5179,"MEAN_ANOMALY":305.668,"EPHEMERIS_TYPE":0,"CLASSIFICATION_TYPE":"U","NORAD_CAT_ID":66782,"ELEMENT_SET_NO":999,"REV_AT_EPOCH":794,"BSTAR":0.00075568,"MEAN_MOTION_DOT":9.205e-5,"MEAN_MOTION_DDOT":0},{"OBJECT_NAME":"LEMUR-2-STARLIGHT","OBJECT_ID":"2025-276DY","EPOCH":"2026-03-28T17:06:10.198656","MEAN_MOTION":14.98098267,"ECCENTRICITY":0.0015315,"INCLINATION":97.5308,"RA_OF_ASC_NODE":161.132,"ARG_OF_PERICENTER":46.9062,"MEAN_ANOMALY":313.344,"EPHEMERIS_TYPE":0,"CLASSIFICATION_TYPE":"U","NORAD_CAT_ID":66783,"ELEMENT_SET_NO":999,"REV_AT_EPOCH":1814,"BSTAR":0.00077092,"MEAN_MOTION_DOT":9.097e-5,"MEAN_MOTION_DDOT":0}]
